NORAD_CAT_ID,OBJECT_NAME,OBJECT_TYPE,EPOCH,MEAN_MOTION,ECCENTRICITY,INCLINATION,RA_OF_ASC_NODE,ARG_OF_PERICENTER,MEAN_ANOMALY,BSTAR,MEAN_MOTION_DOT,MEAN_MOTION_DDOT,TLE_LINE0,TLE_LINE1,TLE_LINE2,SEMIMAJOR_AXIS,PERIOD,APOGEE,PERIGEE,DECAYED
53823.0,STARLINK-4748,PAYLOAD,2022-10-25 22:00:01,15.73168867,0.0002691,53.2161,74.7714,12.6819,132.0864,0.00045495,0.00063636,0.0,0 STARLINK-4748,1 53823U 22114F   22298.91668981  .00063636  00000-0  45495-3 0  9996,2 53823  53.2161  74.7714 0002691  12.6819 132.0864 15.73168867  1306,6727.984,91.535,351.659,348.038,0.0
53823.0,STARLINK-4748,PAYLOAD,2022-10-26 06:00:00,15.73207858,0.0002456,53.2163,73.12,14.4495,219.1821,0.00053417,0.00075051,0.0,0 STARLINK-4748,1 53823U 22114F   22299.25001157  .00075051  00000-0  53417-3 0  9997,2 53823  53.2163  73.1200 0002456  14.4495 219.1821 15.73207858  6455,6727.873000000001,91.533,351.39,348.085,0.0
53823.0,STARLINK-4748,PAYLOAD,2022-10-26 14:00:01,15.73227266,0.00027,53.2167,71.472,18.0054,304.5833,-7.594e-05,-0.0001127999999999,0.0,0 STARLINK-4748,1 53823U 22114F   22299.58334491 -.00011280  00000-0 -75940-4 0  9995,2 53823  53.2167  71.4720 0002700  18.0054 304.5833 15.73227266  1306,6727.816999999999,91.532,351.499,347.866,0.0
53823.0,STARLINK-4748,PAYLOAD,2022-10-26 22:00:00,15.73256824,0.0002863,53.2168,69.82300000000001,13.7941,37.7425,-0.00040386,-0.00057069,0.0,0 STARLINK-4748,1 53823U 22114F   22299.91667824 -.00057069  00000-0 -40386-3 0  9991,2 53823  53.2168  69.8230 0002863  13.7941  37.7425 15.73256824  1305,6727.733,91.53,351.524,347.672,0.0
53823.0,STARLINK-4748,PAYLOAD,2022-10-27 14:00:01,15.73213575,0.0002907,53.217,66.5238,11.2573,218.2576,0.00022314,0.00030832,0.0,0 STARLINK-4748,1 53823U 22114F   22300.58335648  .00030832  00000-0  22314-3 0  9991,2 53823  53.2170  66.5238 0002907  11.2573 218.2576 15.73213575  6666,6727.856,91.532,351.677,347.766,0.0
53823.0,STARLINK-4748,PAYLOAD,2022-10-27 22:00:00,15.73256773,0.0003057,53.2165,64.8745,12.2911,306.1223,-0.00013194,-0.00019148,0.0,0 STARLINK-4748,1 53823U 22114F   22300.91667824 -.00019148  00000-0 -13194-3 0  9997,2 53823  53.2165  64.8745 0003057  12.2911 306.1223 15.73256773  1307,6727.733,91.53,351.655,347.542,0.0
53823.0,STARLINK-4748,PAYLOAD,2022-10-28 14:00:01,15.73199506,0.0003078,53.2169,61.5754,14.5605,121.8822,0.00014247,0.00019422,0.0,0 STARLINK-4748,1 53823U 22114F   22301.58335648  .00019422  00000-0  14247-3 0  9990,2 53823  53.2169  61.5754 0003078  14.5605 121.8822 15.73199506  1300,6727.897,91.533,351.832,347.691,0.0
53823.0,STARLINK-4748,PAYLOAD,2022-10-28 22:00:01,15.73253029,0.0003157,53.217,59.9261,10.9619,214.4079,-0.00082206,-0.00114731,0.0,0 STARLINK-4748,1 53823U 22114F   22301.91668981 -.00114731  00000-0 -82206-3 0  9997,2 53823  53.2170  59.9261 0003157  10.9619 214.4079 15.73253029  1303,6727.744000000002,91.53,351.733,347.485,0.0
53823.0,STARLINK-4748,PAYLOAD,2022-10-29 08:00:01,15.73205731,0.0003095,53.2174,57.8627,12.1047,54.3728,-8.7023e-05,-0.00012824,0.0,0 STARLINK-4748,1 53823U 22114F   22302.33334491 -.00012824  00000-0 -87023-4 0  9993,2 53823  53.2174  57.8627 0003095  12.1047  54.3728 15.73205731  6933,6727.879,91.533,351.826,347.662,0.0
53823.0,STARLINK-4748,PAYLOAD,2022-10-29 12:00:00,15.73193687,0.0003261,53.2172,57.0391,13.3538,277.5986,0.00014726,0.00020093,0.0,0 STARLINK-4748,1 53823U 22114F   22302.50001157  .00020093  00000-0  14726-3 0  9996,2 53823  53.2172  57.0391 0003261  13.3538 277.5986 15.73193687  1301,6727.913000000001,91.534,351.972,347.584,0.0
53823.0,STARLINK-4748,PAYLOAD,2022-10-29 22:00:01,15.73281848,0.0003401,53.2165,54.9775,11.9656,120.2048,-0.00036391,-0.00051581,0.0,0 STARLINK-4748,1 53823U 22114F   22302.91668981 -.00051581  00000-0 -36391-3 0  9995,2 53823  53.2165  54.9775 0003401  11.9656 120.2048 15.73281848  1306,6727.6619999999975,91.528,351.815,347.23900000000015,0.0
53823.0,STARLINK-4748,PAYLOAD,2022-10-30 00:00:00,15.73299197,0.000329,53.2166,54.5646,11.1682,233.1833,-0.00073429,-0.00102897,0.0,0 STARLINK-4748,1 53823U 22114F   22303.00001157 -.00102897  00000-0 -73429-3 0  9992,2 53823  53.2166  54.5646 0003290  11.1682 233.1833 15.73299197  7046,6727.611999999999,91.527,351.691,347.264,0.0
53823.0,STARLINK-4748,PAYLOAD,2022-10-30 14:00:01,15.73173873,0.0003359,53.2167,51.679,9.3652,300.6069,3.6213e-05,4.457e-05,0.0,0 STARLINK-4748,1 53823U 22114F   22303.58334491  .00004457  00000-0  36213-4 0  9997,2 53823  53.2167  51.6790 0003359   9.3652 300.6069 15.73173873  1303,6727.97,91.535,352.095,347.575,0.0
53823.0,STARLINK-4748,PAYLOAD,2022-10-30 22:00:01,15.73207848,0.0003426,53.2168,50.0291,5.1313,33.8027,-0.00026712,-0.00037969,0.0,0 STARLINK-4748,1 53823U 22114F   22303.91668981 -.00037969  00000-0 -26712-3 0  9996,2 53823  53.2168  50.0291 0003426   5.1313  33.8027 15.73207848  1305,6727.873000000001,91.533,352.043,347.43300000000005,0.0
53823.0,STARLINK-4748,PAYLOAD,2022-10-31 14:00:01,15.73206397,0.0003651,53.2169,46.7305,9.27,207.4508,-0.00029475,-0.00041813,0.0,0 STARLINK-4748,1 53823U 22114F   22304.58334491 -.00041813  00000-0 -29475-3 0  9998,2 53823  53.2169  46.7305 0003651   9.2700 207.4508 15.73206397  1300,6727.877,91.533,352.1980000000001,347.286,0.0
53823.0,STARLINK-4748,PAYLOAD,2022-10-31 22:00:01,15.73213261,0.0003621999999999,53.2163,45.0803,6.2285,299.4767,-0.00033924,-0.00048009,0.0,0 STARLINK-4748,1 53823U 22114F   22304.91668981 -.00048009  00000-0 -33924-3 0  9997,2 53823  53.2163  45.0803 0003622   6.2285 299.4767 15.73213261  7348,6727.857,91.532,352.159,347.286,0.0
53823.0,STARLINK-4748,PAYLOAD,2022-11-01 14:00:01,15.73188324,0.0003731999999999,53.2167,41.782,3.4183,120.0762,0.00026342,0.000365,0.0,0 STARLINK-4748,1 53823U 22114F   22305.58334491  .00036500  00000-0  26342-3 0  9994,2 53823  53.2167  41.7820 0003732   3.4183 120.0762 15.73188324  7448,6727.928000000001,91.534,352.30400000000014,347.283,0.0
53823.0,STARLINK-4748,PAYLOAD,2022-11-01 22:00:00,15.73262089,0.0003771,53.2168,40.1316,3.9659,208.449,-0.0007547999999999,-0.00105567,0.0,0 STARLINK-4748,1 53823U 22114F   22305.91667824 -.00105567  00000-0 -75480-3 0  9999,2 53823  53.2168  40.1316 0003771   3.9659 208.4490 15.73262089  1307,6727.718000000003,91.53,352.12,347.046,0.0
53823.0,STARLINK-4748,PAYLOAD,2022-11-02 06:00:00,15.73192976,0.000371,53.2172,38.4808,7.2519,294.1229,-0.00025971,-0.00036917,0.0,0 STARLINK-4748,1 53823U 22114F   22306.25001157 -.00036917  00000-0 -25971-3 0  9990,2 53823  53.2172  38.4808 0003710   7.2519 294.1229 15.73192976  7555,6727.915,91.534,352.276,347.284,0.0
53823.0,STARLINK-4748,PAYLOAD,2022-11-02 14:00:01,15.73138203,0.0004058,53.2173,36.8352,9.2832,20.9989,0.00059117,0.00082977,0.0,0 STARLINK-4748,1 53823U 22114F   22306.58334491  .00082977  00000-0  59117-3 0  9990,2 53823  53.2173  36.8352 0004058   9.2832  20.9989 15.73138203  1306,6728.071,91.537,352.667,347.206,0.0
53823.0,STARLINK-4748,PAYLOAD,2022-11-02 22:00:00,15.73239813,0.0004013999999999,53.2166,35.1829,8.6058,110.5426,-0.00035033,-0.0004961,0.0,0 STARLINK-4748,1 53823U 22114F   22306.91667824 -.00049610  00000-0 -35033-3 0  9996,2 53823  53.2166  35.1829 0004014   8.6058 110.5426 15.73239813  7659,6727.781999999997,91.531,352.347,346.946,0.0
53823.0,STARLINK-4748,PAYLOAD,2022-11-03 08:00:01,15.73251258,0.0003898,53.217,33.1205,7.2144,313.1233,0.00033825,0.00047236,0.0,0 STARLINK-4748,1 53823U 22114F   22307.33334491  .00047236  00000-0  33825-3 0  9991,2 53823  53.2170  33.1205 0003898   7.2144 313.1233 15.73251258  7722,6727.749,91.53,352.237,346.992,0.0
53823.0,STARLINK-4748,PAYLOAD,2022-11-03 14:00:01,15.73292973,0.0004093999999999,53.2171,31.8849,5.4853,291.5972,-0.00054268,-0.00076442,0.0,0 STARLINK-4748,1 53823U 22114F   22307.58334491 -.00076442  00000-0 -54268-3 0  9995,2 53823  53.2171  31.8849 0004094   5.4853 291.5972 15.73292973  1304,6727.63,91.528,352.249,346.741,0.0
53823.0,STARLINK-4748,PAYLOAD,2022-11-03 22:00:00,15.73258989,0.0004042,53.2173,30.2341,1.6056,24.4834,-0.00049732,-0.00070054,0.0,0 STARLINK-4748,1 53823U 22114F   22307.91667824 -.00070054  00000-0 -49732-3 0  9994,2 53823  53.2173  30.2341 0004042   1.6056  24.4834 15.73258989  1301,6727.727,91.53,352.311,346.87300000000016,0.0
53823.0,STARLINK-4748,PAYLOAD,2022-11-04 14:00:01,15.73213258,0.0004134,53.2177,26.9395,5.7953,198.1871,-0.0015169,-0.0020858,0.0,0 STARLINK-4748,1 53823U 22114F   22308.58334491 -.00208580  00000-0 -15169-2 0  9992,2 53823  53.2177  26.9395 0004134   5.7953 198.1871 15.73213258  1309,6727.857,91.532,352.504,346.941,0.0
53823.0,STARLINK-4748,PAYLOAD,2022-11-04 22:00:01,15.73204173,0.0003975,53.2172,25.2851,0.1807,292.8771,-0.00063098,-0.00088316,0.0,0 STARLINK-4748,1 53823U 22114F   22308.91668981 -.00088316  00000-0 -63098-3 0  9991,2 53823  53.2172  25.2851 0003975   0.1807 292.8771 15.73204173  7978,6727.8830000000025,91.533,352.423,347.074,0.0
53823.0,STARLINK-4748,PAYLOAD,2022-11-05 14:00:01,15.73212949,0.0004014,53.2175,21.9882,357.2122,113.5738,-0.00067596,-0.00094535,0.0,0 STARLINK-4748,1 53823U 22114F   22309.58335648 -.00094535  00000-0 -67596-3 0  9993,2 53823  53.2175  21.9882 0004014 357.2122 113.5738 15.73212949  1302,6727.858,91.532,352.4240000000001,347.023,0.0
53823.0,STARLINK-4748,PAYLOAD,2022-11-05 22:00:01,15.73189844,0.0003891,53.2177,20.3373,356.4438,203.2449,-0.00039004,-0.00055009,0.0,0 STARLINK-4748,1 53823U 22114F   22309.91668981 -.00055009  00000-0 -39004-3 0  9995,2 53823  53.2177  20.3373 0003891 356.4438 203.2449 15.73189844  8136,6727.924,91.534,352.407,347.171,0.0
53823.0,STARLINK-4748,PAYLOAD,2022-11-06 06:00:00,15.73097849,0.0003906,53.218,18.6874,4.0028,284.5224,0.0015627,0.002237,0.0,0 STARLINK-4748,1 53823U 22114F   22310.25001157  .00223700  00000-0  15627-2 0  9997,2 53823  53.2180  18.6874 0003906   4.0028 284.5224 15.73097849  8185,6728.186,91.539,352.67900000000014,347.423,0.0
